[{"OBJECT_NAME":"SL-14 R/B","OBJECT_ID":"1986-006B","EPOCH":"2026-03-07T00:43:38.828064","MEAN_MOTION":14.86810288,"ECCENTRICITY":0.0075095,"INCLINATION":82.5234,"RA_OF_ASC_NODE":262.2409,"ARG_OF_PERICENTER":281.8007,"MEAN_ANOMALY":77.4793,"EPHEMERIS_TYPE":0,"CLASSIFICATION_TYPE":"U","NORAD_CAT_ID":16496,"ELEMENT_SET_NO":999,"REV_AT_EPOCH":14881,"BSTAR":7.6284e-5,"MEAN_MOTION_DOT":7.41e-6,"MEAN_MOTION_DDOT":0},{"OBJECT_NAME":"COSMOS 1743","OBJECT_ID":"1986-034A","EPOCH":"2026-03-07T01:46:08.361696","MEAN_MOTION":15.58334046,"ECCENTRICITY":0.0001816,"INCLINATION":82.5295,"RA_OF_ASC_NODE":76.5761,"ARG_OF_PERICENTER":315.7122,"MEAN_ANOMALY":44.3988,"EPHEMERIS_TYPE":0,"CLASSIFICATION_TYPE":"U","NORAD_CAT_ID":16719,"ELEMENT_SET_NO":999,"REV_AT_EPOCH":17984,"BSTAR":0.00051438,"MEAN_MOTION_DOT":0.00039159,"MEAN_MOTION_DDOT":0},{"OBJECT_NAME":"SL-14 R/B","OBJECT_ID":"1986-046B","EPOCH":"2026-03-07T02:42:53.823744","MEAN_MOTION":14.85587022,"ECCENTRICITY":0.0021818,"INCLINATION":82.4782,"RA_OF_ASC_NODE":82.617,"ARG_OF_PERICENTER":234.3727,"MEAN_ANOMALY":125.5457,"EPHEMERIS_TYPE":0,"CLASSIFICATION_TYPE":"U","NORAD_CAT_ID":16792,"ELEMENT_SET_NO":999,"REV_AT_EPOCH":12602,"BSTAR":6.011e-5,"MEAN_MOTION_DOT":5.46e-6,"MEAN_MOTION_DDOT":0},{"OBJECT_NAME":"SL-14 R/B","OBJECT_ID":"1986-055B","EPOCH":"2026-03-07T04:12:01.435104","MEAN_MOTION":14.85639715,"ECCENTRICITY":0.0018393,"INCLINATION":82.5206,"RA_OF_ASC_NODE":129.0378,"ARG_OF_PERICENTER":345.1389,"MEAN_ANOMALY":70.1463,"EPHEMERIS_TYPE":0,"CLASSIFICATION_TYPE":"U","NORAD_CAT_ID":16882,"ELEMENT_SET_NO":999,"REV_AT_EPOCH":11899,"BSTAR":5.7613e-5,"MEAN_MOTION_DOT":5.24e-6,"MEAN_MOTION_DDOT":0},{"OBJECT_NAME":"AJISAI (EGS)","OBJECT_ID":"1986-061A","EPOCH":"2026-03-07T03:22:45.395616","MEAN_MOTION":12.44515641,"ECCENTRICITY":0.0011257,"INCLINATION":50.008,"RA_OF_ASC_NODE":101.1859,"ARG_OF_PERICENTER":280.4363,"MEAN_ANOMALY":127.0737,"EPHEMERIS_TYPE":0,"CLASSIFICATION_TYPE":"U","NORAD_CAT_ID":16908,"ELEMENT_SET_NO":999,"REV_AT_EPOCH":46768,"BSTAR":6.0347e-5,"MEAN_MOTION_DOT":-8.9e-7,"MEAN_MOTION_DDOT":0},{"OBJECT_NAME":"SL-14 R/B","OBJECT_ID":"1987-024B","EPOCH":"2026-03-07T03:32:20.950944","MEAN_MOTION":14.86128858,"ECCENTRICITY":0.0016674,"INCLINATION":82.5248,"RA_OF_ASC_NODE":95.1538,"ARG_OF_PERICENTER":269.1323,"MEAN_ANOMALY":90.7983,"EPHEMERIS_TYPE":0,"CLASSIFICATION_TYPE":"U","NORAD_CAT_ID":17567,"ELEMENT_SET_NO":999,"REV_AT_EPOCH":8775,"BSTAR":5.6951e-5,"MEAN_MOTION_DOT":5.24e-6,"MEAN_MOTION_DDOT":0},{"OBJECT_NAME":"COSMOS 1833","OBJECT_ID":"1987-027A","EPOCH":"2026-03-07T04:05:11.415264","MEAN_MOTION":14.13055413,"ECCENTRICITY":0.0024392,"INCLINATION":70.9229,"RA_OF_ASC_NODE":331.3137,"ARG_OF_PERICENTER":218.0534,"MEAN_ANOMALY":141.8865,"EPHEMERIS_TYPE":0,"CLASSIFICATION_TYPE":"U","NORAD_CAT_ID":17589,"ELEMENT_SET_NO":999,"REV_AT_EPOCH":996,"BSTAR":-5.3372e-5,"MEAN_MOTION_DOT":-1.48e-6,"MEAN_MOTION_DDOT":0},{"OBJECT_NAME":"SL-16 R/B","OBJECT_ID":"1987-027B","EPOCH":"2026-03-07T00:14:30.455808","MEAN_MOTION":14.171657,"ECCENTRICITY":0.0003547,"INCLINATION":71.0011,"RA_OF_ASC_NODE":282.1422,"ARG_OF_PERICENTER":148.7522,"MEAN_ANOMALY":211.3813,"EPHEMERIS_TYPE":0,"CLASSIFICATION_TYPE":"U","NORAD_CAT_ID":17590,"ELEMENT_SET_NO":999,"REV_AT_EPOCH":1496,"BSTAR":-1.778e-5,"MEAN_MOTION_DOT":-8.4e-7,"MEAN_MOTION_DDOT":0},{"OBJECT_NAME":"SL-14 R/B","OBJECT_ID":"1987-038B","EPOCH":"2026-03-07T03:23:13.706304","MEAN_MOTION":14.85366379,"ECCENTRICITY":0.0019466,"INCLINATION":82.5005,"RA_OF_ASC_NODE":299.2089,"ARG_OF_PERICENTER":168.6597,"MEAN_ANOMALY":191.5061,"EPHEMERIS_TYPE":0,"CLASSIFICATION_TYPE":"U","NORAD_CAT_ID":17912,"ELEMENT_SET_NO":999,"REV_AT_EPOCH":7885,"BSTAR":5.5213e-5,"MEAN_MOTION_DOT":5.01e-6,"MEAN_MOTION_DDOT":0},{"OBJECT_NAME":"COSMOS 1844","OBJECT_ID":"1987-041A","EPOCH":"2026-03-07T03:17:51.640800","MEAN_MOTION":14.14552672,"ECCENTRICITY":0.0029853,"INCLINATION":70.8997,"RA_OF_ASC_NODE":39.5581,"ARG_OF_PERICENTER":21.5976,"MEAN_ANOMALY":338.6397,"EPHEMERIS_TYPE":0,"CLASSIFICATION_TYPE":"U","NORAD_CAT_ID":17973,"ELEMENT_SET_NO":999,"REV_AT_EPOCH":322,"BSTAR":-5.3473e-5,"MEAN_MOTION_DOT":-1.51e-6,"MEAN_MOTION_DDOT":0},{"OBJECT_NAME":"SL-14 R/B","OBJECT_ID":"1987-055B","EPOCH":"2026-03-07T04:27:38.958912","MEAN_MOTION":14.85625497,"ECCENTRICITY":0.0021367,"INCLINATION":82.503,"RA_OF_ASC_NODE":351.3903,"ARG_OF_PERICENTER":25.909,"MEAN_ANOMALY":334.319,"EPHEMERIS_TYPE":0,"CLASSIFICATION_TYPE":"U","NORAD_CAT_ID":18153,"ELEMENT_SET_NO":999,"REV_AT_EPOCH":6956,"BSTAR":7.7835e-5,"MEAN_MOTION_DOT":7.01e-6,"MEAN_MOTION_DDOT":0},{"OBJECT_NAME":"COSMOS 1867","OBJECT_ID":"1987-060A","EPOCH":"2026-03-07T01:35:00.497472","MEAN_MOTION":14.31502571,"ECCENTRICITY":0.0014467,"INCLINATION":65.0116,"RA_OF_ASC_NODE":314.0531,"ARG_OF_PERICENTER":278.5048,"MEAN_ANOMALY":81.4396,"EPHEMERIS_TYPE":0,"CLASSIFICATION_TYPE":"U","NORAD_CAT_ID":18187,"ELEMENT_SET_NO":999,"REV_AT_EPOCH":1956,"BSTAR":3.0865e-5,"MEAN_MOTION_DOT":-1.8e-7,"MEAN_MOTION_DDOT":0},{"OBJECT_NAME":"SL-14 R/B","OBJECT_ID":"1988-001B","EPOCH":"2026-03-06T15:24:39.894624","MEAN_MOTION":14.85523654,"ECCENTRICITY":0.00166852,"INCLINATION":82.5147,"RA_OF_ASC_NODE":198.2257,"ARG_OF_PERICENTER":246.554,"MEAN_ANOMALY":113.3923,"EPHEMERIS_TYPE":0,"CLASSIFICATION_TYPE":"U","NORAD_CAT_ID":18749,"ELEMENT_SET_NO":999,"REV_AT_EPOCH":4157,"BSTAR":9.5623698e-5,"MEAN_MOTION_DOT":8.51e-6,"MEAN_MOTION_DDOT":0},{"OBJECT_NAME":"COSMOS 1933","OBJECT_ID":"1988-020A","EPOCH":"2026-03-07T00:30:57.300192","MEAN_MOTION":15.17951717,"ECCENTRICITY":0.0003606,"INCLINATION":82.5097,"RA_OF_ASC_NODE":253.5522,"ARG_OF_PERICENTER":191.5467,"MEAN_ANOMALY":168.5685,"EPHEMERIS_TYPE":0,"CLASSIFICATION_TYPE":"U","NORAD_CAT_ID":18958,"ELEMENT_SET_NO":999,"REV_AT_EPOCH":4982,"BSTAR":0.00022326,"MEAN_MOTION_DOT":4.562e-5,"MEAN_MOTION_DDOT":0},{"OBJECT_NAME":"SL-3 R/B","OBJECT_ID":"1988-032B","EPOCH":"2026-03-07T03:57:31.349952","MEAN_MOTION":15.19872188,"ECCENTRICITY":0.0024292,"INCLINATION":97.5193,"RA_OF_ASC_NODE":49.4246,"ARG_OF_PERICENTER":240.8755,"MEAN_ANOMALY":119.0048,"EPHEMERIS_TYPE":0,"CLASSIFICATION_TYPE":"U","NORAD_CAT_ID":19046,"ELEMENT_SET_NO":999,"REV_AT_EPOCH":5172,"BSTAR":0.00032831,"MEAN_MOTION_DOT":7.03e-5,"MEAN_MOTION_DDOT":0},{"OBJECT_NAME":"SL-16 R/B","OBJECT_ID":"1988-039B","EPOCH":"2026-03-07T03:52:59.410272","MEAN_MOTION":14.196155,"ECCENTRICITY":0.0022621,"INCLINATION":71.0132,"RA_OF_ASC_NODE":73.8932,"ARG_OF_PERICENTER":338.03,"MEAN_ANOMALY":21.9853,"EPHEMERIS_TYPE":0,"CLASSIFICATION_TYPE":"U","NORAD_CAT_ID":19120,"ELEMENT_SET_NO":999,"REV_AT_EPOCH":95802,"BSTAR":-5.5e-5,"MEAN_MOTION_DOT":-1.65e-6,"MEAN_MOTION_DDOT":0},{"OBJECT_NAME":"COSMOS 1953","OBJECT_ID":"1988-050A","EPOCH":"2026-03-07T04:52:54.091776","MEAN_MOTION":15.28469977,"ECCENTRICITY":0.0012444,"INCLINATION":82.5103,"RA_OF_ASC_NODE":160.7464,"ARG_OF_PERICENTER":130.6304,"MEAN_ANOMALY":229.602,"EPHEMERIS_TYPE":0,"CLASSIFICATION_TYPE":"U","NORAD_CAT_ID":19210,"ELEMENT_SET_NO":999,"REV_AT_EPOCH":3740,"BSTAR":0.00037642,"MEAN_MOTION_DOT":0.00010486,"MEAN_MOTION_DDOT":0}]
